GPS BIIF-11             
1 41019U 15062A   26064.57330864 -.00000079  00000+0  00000+0 0  9998
2 41019  56.8937  34.8029 0111452 231.5057 127.4773  2.00567091 75753
ELEKTRO-L 2             
1 41105U 15074A   26064.56703858 -.00000122  00000+0  00000+0 0  9992
2 41105   6.4339  71.7988 0003378 239.1004  42.0209  1.00270857 37465
GSAT0209 (GALILEO 12)   
1 41174U 15079A   26063.04029836  .00000013  00000+0  00000+0 0  9990
2 41174  55.7590 104.1453 0004747 323.4357  36.6173  1.70474529 62987
GSAT0208 (GALILEO 11)   
1 41175U 15079B   26062.08735472  .00000015  00000+0  00000+0 0  9996
2 41175  55.7569 104.1685 0004163 323.7694  36.2890  1.70474318 63383
GPS BIIF-12             
1 41328U 16007A   26064.16012979  .00000004  00000+0  00000+0 0  9997
2 41328  55.4561  93.5827 0095453 246.0235 113.0379  2.00556727 73758
GSAT0211 (GALILEO 14)   
1 41549U 16030A   26063.97104929  .00000014  00000+0  00000+0 0  9994
2 41549  55.1315 224.5579 0003586  25.2753 334.6794  1.70473864 60894
GSAT0210 (GALILEO 13)   
1 41550U 16030B   26064.22832682  .00000015  00000+0  00000+0 0  9990
2 41550  55.1285 224.5491 0001188 194.8212 165.1129  1.70473971 60892
INSAT-3DR               
1 41752U 16054A   26064.66918175 -.00000084  00000+0  00000+0 0  9997
2 41752   0.0506  95.8108 0013138 186.1953 196.2787  1.00272590 34780
GSAT0207 (GALILEO 15)   
1 41859U 16069A   26059.22748061  .00000008  00000+0  00000+0 0  9997
2 41859  55.4267 104.1007 0005031 309.1503  50.8842  1.70474383 57546
GSAT0212 (GALILEO 16)   
1 41860U 16069B   26062.01395955  .00000014  00000+0  00000+0 0  9997
2 41860  55.4261 104.0186 0003622 335.7588  24.3106  1.70474657 57847
GSAT0213 (GALILEO 17)   
1 41861U 16069C   26058.27531726  .00000004  00000+0  00000+0 0  9998
2 41861  55.4260 104.1303 0005130 291.6331  68.3872  1.70474834 57644
GSAT0214 (GALILEO 18)   
1 41862U 16069D   26059.00795760  .00000007  00000+0  00000+0 0  9994
2 41862  55.4250 104.1026 0004132 296.1582  63.8775  1.70474701 57785
GOES 16                 
1 41866U 16071A   26064.63382161 -.00000098  00000+0  00000+0 0  9994
2 41866   0.1410  89.5903 0002454 220.5452 336.6996  1.00271863 34065
GSAT-17                 
1 42815U 17040B   26064.31634419 -.00000266  00000+0  00000+0 0  9994
2 42815   0.0381 296.1388 0004948 351.8585  82.4276  1.00269840 31745
GSAT0215 (GALILEO 19)   
1 43055U 17079A   26062.43085966  .00000010  00000+0  00000+0 0  9997
2 43055  55.1080 224.4135 0000631  13.1955 346.7446  1.70474475 51181
GSAT0216 (GALILEO 20)   
1 43056U 17079B   26060.96235113  .00000013  00000+0  00000+0 0  9998
2 43056  55.1088 224.4540 0001688 322.1798  37.7539  1.70474524 51175
GSAT0217 (GALILEO 21)   
1 43057U 17079C   26064.11599664  .00000014  00000+0  00000+0 0  9995
2 43057  55.1079 224.3651 0002088 356.0140   3.9214  1.70474546 51214
